NORAD_CAT_ID,OBJECT_NAME,OBJECT_TYPE,EPOCH,MEAN_MOTION,ECCENTRICITY,INCLINATION,RA_OF_ASC_NODE,ARG_OF_PERICENTER,MEAN_ANOMALY,BSTAR,MEAN_MOTION_DOT,MEAN_MOTION_DDOT,TLE_LINE0,TLE_LINE1,TLE_LINE2,SEMIMAJOR_AXIS,PERIOD,APOGEE,PERIGEE,DECAYED
56469.0,STARLINK-5518,PAYLOAD,2023-08-25 06:00:00,15.51238639,0.0003683,70.0005,306.3858,267.8585,305.2854,-4.9275e-05,-3.06e-05,0.0,0 STARLINK-5518,1 56469U 23064X   23237.25001157 -.00003060  00000-0 -49275-4 0  9995,2 56469  70.0005 306.3858 0003683 267.8585 305.2854 15.51238639 17084,6791.246,92.829,415.612,410.609,0.0
56469.0,STARLINK-5518,PAYLOAD,2023-08-25 14:00:01,15.5121559,0.0003717,70.0004,305.4742,273.2604,0.8185,0.00016976,9.816e-05,0.0,0 STARLINK-5518,1 56469U 23064X   23237.58334491  .00009816  00000-0  16976-3 0  9995,2 56469  70.0004 305.4742 0003717 273.2604   0.8185 15.51215590  5966,6791.313,92.83,415.702,410.653,0.0
56469.0,STARLINK-5518,PAYLOAD,2023-08-25 22:00:01,15.51218992,0.0003705,70.0001,304.5627,268.9237,66.1299,-0.0001232,-7.394e-05,0.0,0 STARLINK-5518,1 56469U 23064X   23237.91668981 -.00007394  00000-0 -12320-3 0  9996,2 56469  70.0001 304.5627 0003705 268.9237  66.1299 15.51218992  6012,6791.303,92.83,415.684,410.652,0.0
56469.0,STARLINK-5518,PAYLOAD,2023-08-26 07:23:38,15.51225116,0.0003107,69.9961,303.4896,250.1491,109.936,1.2089e-05,5.45e-06,0.0,0 STARLINK-5518,1 56469U 23064X   23238.30807962  .00000545  00000-0  12089-4 0  9996,2 56469  69.9961 303.4896 0003107 250.1491 109.9360 15.51225116 17249,6791.285,92.83,415.26,411.04,0.0
56469.0,STARLINK-5518,PAYLOAD,2023-08-26 12:02:12,15.51226366,0.0003738,69.9968,302.9635,269.343,90.7328,9.6479e-06,4.02e-06,0.0,0 STARLINK-5518,1 56469U 23064X   23238.50153292  .00000402  00000-0  96479-5 0  9996,2 56469  69.9968 302.9635 0003738 269.3430  90.7328 15.51226366 16929,6791.281,92.83,415.685,410.608,0.0
56469.0,STARLINK-5518,PAYLOAD,2023-08-27 05:03:39,15.51218072,0.0003504,69.9965,301.0227,267.9921,92.0863,1.651e-07,-1.55e-06,0.0,0 STARLINK-5518,1 56469U 23064X   23239.21086935 -.00000155  00000-0  16510-6 0  9999,2 56469  69.9965 301.0227 0003504 267.9921  92.0863 15.51218072 17388,6791.306,92.83,415.55,410.791,0.0
56469.0,STARLINK-5518,PAYLOAD,2023-08-27 14:21:24,15.50753774,0.0004117,69.9969,299.9679,257.266,102.8066,-0.0010305,-0.00059257,0.0,0 STARLINK-5518,1 56469U 23064X   23239.59820554 -.00059257  00000-0 -10305-2 0  9993,2 56469  69.9969 299.9679 0004117 257.2660 102.8066 15.50753774 17445,6792.661,92.858,417.323,411.73,0.0
56469.0,STARLINK-5518,PAYLOAD,2023-08-27 22:06:06,15.50541657,0.0003183,69.9977,299.0883,259.7766,100.3061,-0.001445,-0.00082155,0.0,0 STARLINK-5518,1 56469U 23064X   23239.92090923 -.00082155  00000-0 -14450-2 0  9997,2 56469  69.9977 299.0883 0003183 259.7766 100.3061 15.50541657 17148,6793.281,92.871,417.308,412.983,0.0
56469.0,STARLINK-5518,PAYLOAD,2023-08-28 10:30:12,15.49852312,0.0003051,69.9964,297.6793,249.7288,110.357,-0.002772,-0.00152313,0.0,0 STARLINK-5518,1 56469U 23064X   23240.43764279 -.00152313  00000-0 -27720-2 0  9995,2 56469  69.9964 297.6793 0003051 249.7288 110.3570 15.49852312 17574,6795.295,92.912,419.233,415.086,0.0
56469.0,STARLINK-5518,PAYLOAD,2023-08-28 22:00:00,15.4774379,0.0003295,69.9998,296.3734,271.4174,240.7276,-0.018851,-0.00902672,0.0,0 STARLINK-5518,1 56469U 23064X   23240.91667824 -.00902672  00000-0 -18851-1 0  9991,2 56469  69.9998 296.3734 0003295 271.4174 240.7276 15.47743790 17655,6801.465,93.039,425.571,421.089,0.0
56469.0,STARLINK-5518,PAYLOAD,2023-08-29 22:00:00,15.45786488,0.0003389,69.9994,293.6577,269.2942,49.5873,-0.020186,-0.00903181,0.0,0 STARLINK-5518,1 56469U 23064X   23241.91667824 -.00903181  00000-0 -20186-1 0  9992,2 56469  69.9994 293.6577 0003389 269.2942  49.5873 15.45786488 17802,6807.205,93.156,431.377,426.763,0.0
56469.0,STARLINK-5518,PAYLOAD,2023-08-30 22:00:00,15.43825107,0.0003374,69.9989,290.9501,272.32,206.2574,-0.021356,-0.00894296,0.0,0 STARLINK-5518,1 56469U 23064X   23242.91667824 -.00894296  00000-0 -21356-1 0  9999,2 56469  69.9989 290.9501 0003374 272.3200 206.2574 15.43825107 17966,6812.969,93.275,437.133,432.536,0.0
56469.0,STARLINK-5518,PAYLOAD,2023-08-31 14:00:01,15.42523625,0.0003377,69.9985,289.1493,275.9241,305.203,-0.022126,-0.00887251,0.0,0 STARLINK-5518,1 56469U 23064X   23243.58334491 -.00887251  00000-0 -22126-1 0  9993,2 56469  69.9985 289.1493 0003377 275.9241 305.2030 15.42523625 18067,6816.801,93.354,440.968,436.364,0.0
56469.0,STARLINK-5518,PAYLOAD,2023-08-31 22:00:01,15.41864597,0.0003385,69.9985,288.2501,270.2032,1.0934,-0.02265,-0.00888305,0.0,0 STARLINK-5518,1 56469U 23064X   23243.91668981 -.00888305  00000-0 -22650-1 0  9997,2 56469  69.9985 288.2501 0003385 270.2032   1.0934 15.41864597  6068,6818.743,93.393,442.917,438.3,0.0
56469.0,STARLINK-5518,PAYLOAD,2023-09-01 04:00:00,15.41407195,0.0003265,69.9987,287.5765,268.66,309.6177,-0.023785,-0.00916221,0.0,0 STARLINK-5518,1 56469U 23064X   23244.16667824 -.00916221  00000-0 -23785-1 0  9999,2 56469  69.9987 287.5765 0003265 268.6600 309.6177 15.41407195 18159,6820.092,93.421,444.184,439.731,0.0
56469.0,STARLINK-5518,PAYLOAD,2023-09-01 14:00:01,15.40568859,0.0003502,69.9983,286.4545,276.5042,92.583,-0.023697,-0.00889956,0.0,0 STARLINK-5518,1 56469U 23064X   23244.58334491 -.00889956  00000-0 -23697-1 0  9992,2 56469  69.9983 286.4545 0003502 276.5042  92.5830 15.40568859  5908,6822.566,93.472,446.821,442.042,0.0
56469.0,STARLINK-5518,PAYLOAD,2023-09-01 22:00:00,15.39897968,0.0003421,69.9982,285.5579,271.3194,145.5301,-0.023699,-0.00871924,0.0,0 STARLINK-5518,1 56469U 23064X   23244.91667824 -.00871924  00000-0 -23699-1 0  9996,2 56469  69.9982 285.5579 0003421 271.3194 145.5301 15.39897968 18275,6824.548,93.513,448.747,444.078,0.0
56469.0,STARLINK-5518,PAYLOAD,2023-09-02 14:00:01,15.38615054,0.0003265,69.9982,283.7677,276.8879,233.1179,-0.025373,-0.00893096,0.0,0 STARLINK-5518,1 56469U 23064X   23245.58334491 -.00893096  00000-0 -25373-1 0  9996,2 56469  69.9982 283.7677 0003265 276.8879 233.1179 15.38615054 18371,6828.341,93.591,452.435,447.976,0.0
56469.0,STARLINK-5518,PAYLOAD,2023-09-02 22:00:00,15.37940064,0.0003221,69.9981,282.8739,270.1373,285.2854,-0.025159,-0.00868258,0.0,0 STARLINK-5518,1 56469U 23064X   23245.91667824 -.00868258  00000-0 -25159-1 0  9996,2 56469  69.9981 282.8739 0003221 270.1373 285.2854 15.37940064  6036,6830.339,93.632,454.404,450.004,0.0
56469.0,STARLINK-5518,PAYLOAD,2023-09-03 04:00:00,15.37504169,0.0003226,69.9984,282.2044,270.781,228.1616,-0.027689,-0.0093606,0.0,0 STARLINK-5518,1 56469U 23064X   23246.16667824 -.00936060  00000-0 -27689-1 0  9991,2 56469  69.9984 282.2044 0003226 270.7810 228.1616 15.37504169 18463,6831.63,93.658,455.698,451.291,0.0
56469.0,STARLINK-5518,PAYLOAD,2023-09-03 14:00:01,15.36666447,0.0003366,69.9979,281.0893,274.766,9.1161,-0.027458,-0.0090598,0.0,0 STARLINK-5518,1 56469U 23064X   23246.58334491 -.00905980  00000-0 -27458-1 0  9999,2 56469  69.9979 281.0893 0003366 274.7660   9.1161 15.36666447  5968,6834.112,93.709,458.278,453.677,0.0
56469.0,STARLINK-5518,PAYLOAD,2023-09-04 14:00:01,15.34710468,0.0003482,69.998,278.4188,278.004,132.717,-0.029322,-0.00908333,0.0,0 STARLINK-5518,1 56469U 23064X   23247.58334491 -.00908333  00000-0 -29322-1 0  9997,2 56469  69.9980 278.4188 0003482 278.0040 132.7170 15.34710468 18682,6839.918,93.829,464.164,459.401,0.0
56469.0,STARLINK-5518,PAYLOAD,2023-09-05 14:00:01,15.32750872,0.0003364,69.9984,275.7562,277.1785,253.3418,-0.031098,-0.00905452,0.0,0 STARLINK-5518,1 56469U 23064X   23248.58334491 -.00905452  00000-0 -31098-1 0  9990,2 56469  69.9984 275.7562 0003364 277.1785 253.3418 15.32750872 18830,6845.746,93.949,469.914,465.308,0.0
56469.0,STARLINK-5518,PAYLOAD,2023-09-06 14:00:01,15.30797557,0.0003451,69.9985,273.1015,274.4447,8.8326,-0.033316,-0.00911847,0.0,0 STARLINK-5518,1 56469U 23064X   23249.58334491 -.00911847  00000-0 -33316-1 0  9991,2 56469  69.9985 273.1015 0003451 274.4447   8.8326 15.30797557 18984,6851.568,94.069,475.798,471.069,0.0
56469.0,STARLINK-5518,PAYLOAD,2023-09-06 22:00:00,15.30107462,0.0003449,69.9986,272.2185,268.2826,51.0266,-0.031629,-0.00852181,0.0,0 STARLINK-5518,1 56469U 23064X   23249.91667824 -.00852181  00000-0 -31629-1 0  9997,2 56469  69.9986 272.2185 0003449 268.2826  51.0266 15.30107462  6027,6853.628,94.111,477.857,473.13,0.0
56469.0,STARLINK-5518,PAYLOAD,2023-09-07 14:00:01,15.2884626,0.0003466,69.9985,270.4548,276.0834,112.9093,-0.035714,-0.00919453,0.0,0 STARLINK-5518,1 56469U 23064X   23250.58334491 -.00919453  00000-0 -35714-1 0  9998,2 56469  69.9985 270.4548 0003466 276.0834 112.9093 15.28846260 19149,6857.397,94.189,481.639,476.885,0.0
56469.0,STARLINK-5518,PAYLOAD,2023-09-07 22:00:00,15.28150637,0.0003368,69.9985,269.5744,269.5724,153.1077,-0.033636,-0.00853089,0.0,0 STARLINK-5518,1 56469U 23064X   23250.91667824 -.00853089  00000-0 -33636-1 0  9997,2 56469  69.9985 269.5744 0003368 269.5724 153.1077 15.28150637  6075,6859.478,94.232,483.653,479.033,0.0
56469.0,STARLINK-5518,PAYLOAD,2023-09-08 14:00:01,15.26894987,0.0003256,69.9983,267.816,276.6976,210.9701,-0.038331,-0.00940447,0.0,0 STARLINK-5518,1 56469U 23064X   23251.58334491 -.00940447  00000-0 -38331-1 0  9994,2 56469  69.9983 267.8160 0003256 276.6976 210.9701 15.26894987 19295,6863.238,94.309,487.338,482.868,0.0
56469.0,STARLINK-5518,PAYLOAD,2023-09-08 22:00:00,15.26196065,0.0003211,69.9983,266.9383,269.1041,249.9046,-0.035788,-0.0085499,0.0,0 STARLINK-5518,1 56469U 23064X   23251.91667824 -.00854990  00000-0 -35788-1 0  9990,2 56469  69.9983 266.9383 0003211 269.1041 249.9046 15.26196065  6037,6865.333,94.352,489.403,484.994,0.0
56469.0,STARLINK-5518,PAYLOAD,2023-09-09 14:00:01,15.24943078,0.0003188,69.998,265.1852,274.4594,304.8435,-0.041144,-0.00950789,0.0,0 STARLINK-5518,1 56469U 23064X   23252.58334491 -.00950789  00000-0 -41144-1 0  9991,2 56469  69.9980 265.1852 0003188 274.4594 304.8435 15.24943078  5978,6869.093,94.43,493.148,488.768,0.0
